SL-4 R/B                
1 39679U 14021B   25365.21245660  .00017159  00000+0  40084-3 0  9990
2 39679  51.6083 310.7904 0100338 212.9799 146.4899 15.37138051645737
ALOS-2                  
1 39766U 14029A   26001.22130323  .00004563  00000+0  61755-3 0  9996
2 39766  97.9218 100.7895 0001317 104.7310 255.4047 14.79466598626894
YAOGAN-29               
1 41038U 15069A   26001.18545294  .00001088  00000+0  14090-3 0  9997
2 41038  98.0212  29.4188 0001429 149.5278 210.6018 14.82908572545877
ASTRO-H (HITOMI)        
1 41337U 16012A   25365.60292556  .00005867  00000+0  35123-3 0  9996
2 41337  31.0003  75.7520 0009585   8.1208 351.9584 15.09495126541938
HXMT (HUIYAN)           
1 42758U 17034A   26001.22277598  .00009455  00000+0  48176-3 0  9993
2 42758  43.0156  31.4951 0032074 170.5750 189.5706 15.16508139472290
CZ-2C R/B               
1 43521U 18054D   26001.17842799  .00161024  00000+0  86087-3 0  9994
2 43521  35.1337  48.6592 0012943 336.9740  23.0414 15.78770989418125
SAOCOM 1A               
1 43641U 18076A   25365.43986047 -.00000404  00000+0 -44157-4 0  9996
2 43641  97.8848 189.5891 0001384  83.2840 276.8530 14.82154801391251
H-2A R/B                
1 43682U 18084L   26001.14879043  .00029771  00000+0  78294-3 0  9997
2 43682  98.8765 204.2625 0026103 258.1001 101.7312 15.38196297395382
SAOCOM 1B               
1 46265U 20059A   26001.14620250  .00001343  00000+0  17518-3 0  9993
2 46265  97.8843 189.3848 0001441  85.2398 274.8980 14.82163851288746
CSS (TIANHE)            
1 48274U 21035A   26001.11776442  .00026048  00000+0  31558-3 0  9991
2 48274  41.4667 258.9953 0009918 194.9234 165.1313 15.59995819267056
COSMOS 2550             
1 48865U 21056A   25365.50582977 -.00000169  00000+0  69865-6 0  9995
2 48865  67.1441 247.1723 0008331 269.3764  90.6436 15.33836624253003
CZ-2C R/B               
1 52794U 22058K   25365.25710800  .00043119  00000+0  74007-3 0  9996
2 52794  50.1923 309.0475 0044127 274.4376  85.1552 15.49588426199500
