CCSDS_OMM_VERS = 2.0
CREATION_DATE  = 
ORIGINATOR     = 

OBJECT_NAME    = SL-4 R/B
OBJECT_ID      = 2014-021B
CENTER_NAME    = EARTH
REF_FRAME      = TEME
TIME_SYSTEM    = UTC
MEAN_ELEMENT_THEORY = SGP/SGP4

EPOCH          = 2025-12-31T05:05:56.250240
MEAN_MOTION    = 15.37138051
ECCENTRICITY   = .0100338
INCLINATION    = 51.6083
RA_OF_ASC_NODE = 310.7904
ARG_OF_PERICENTER = 212.9799
MEAN_ANOMALY   = 146.4899

EPHEMERIS_TYPE = 0
CLASSIFICATION_TYPE = U
NORAD_CAT_ID   = 39679
ELEMENT_SET_NO = 999
REV_AT_EPOCH   = 64573
BSTAR          = .40084E-3
MEAN_MOTION_DOT = .17159E-3
MEAN_MOTION_DDOT = 0

CCSDS_OMM_VERS = 2.0
CREATION_DATE  = 
ORIGINATOR     = 

OBJECT_NAME    = ALOS-2
OBJECT_ID      = 2014-029A
CENTER_NAME    = EARTH
REF_FRAME      = TEME
TIME_SYSTEM    = UTC
MEAN_ELEMENT_THEORY = SGP/SGP4

EPOCH          = 2026-01-01T05:18:40.599072
MEAN_MOTION    = 14.79466598
ECCENTRICITY   = .0001317
INCLINATION    = 97.9218
RA_OF_ASC_NODE = 100.7895
ARG_OF_PERICENTER = 104.7310
MEAN_ANOMALY   = 255.4047

EPHEMERIS_TYPE = 0
CLASSIFICATION_TYPE = U
NORAD_CAT_ID   = 39766
ELEMENT_SET_NO = 999
REV_AT_EPOCH   = 62689
BSTAR          = .61755E-3
MEAN_MOTION_DOT = .4563E-4
MEAN_MOTION_DDOT = 0

CCSDS_OMM_VERS = 2.0
CREATION_DATE  = 
ORIGINATOR     = 

OBJECT_NAME    = YAOGAN-29
OBJECT_ID      = 2015-069A
CENTER_NAME    = EARTH
REF_FRAME      = TEME
TIME_SYSTEM    = UTC
MEAN_ELEMENT_THEORY = SGP/SGP4

EPOCH          = 2026-01-01T04:27:03.134016
MEAN_MOTION    = 14.82908572
ECCENTRICITY   = .0001429
INCLINATION    = 98.0212
RA_OF_ASC_NODE = 29.4188
ARG_OF_PERICENTER = 149.5278
MEAN_ANOMALY   = 210.6018

EPHEMERIS_TYPE = 0
CLASSIFICATION_TYPE = U
NORAD_CAT_ID   = 41038
ELEMENT_SET_NO = 999
REV_AT_EPOCH   = 54587
BSTAR          = .1409E-3
MEAN_MOTION_DOT = .1088E-4
MEAN_MOTION_DDOT = 0

CCSDS_OMM_VERS = 2.0
CREATION_DATE  = 
ORIGINATOR     = 

OBJECT_NAME    = ASTRO-H (HITOMI)
OBJECT_ID      = 2016-012A
CENTER_NAME    = EARTH
REF_FRAME      = TEME
TIME_SYSTEM    = UTC
MEAN_ELEMENT_THEORY = SGP/SGP4

EPOCH          = 2025-12-31T14:28:12.768384
MEAN_MOTION    = 15.09495126
ECCENTRICITY   = .00095857
INCLINATION    = 31.0003
RA_OF_ASC_NODE = 75.7520
ARG_OF_PERICENTER = 8.1208
MEAN_ANOMALY   = 351.9584

EPHEMERIS_TYPE = 0
CLASSIFICATION_TYPE = U
NORAD_CAT_ID   = 41337
ELEMENT_SET_NO = 999
REV_AT_EPOCH   = 54193
BSTAR          = .35123094E-3
MEAN_MOTION_DOT = .5867E-4
MEAN_MOTION_DDOT = 0

CCSDS_OMM_VERS = 2.0
CREATION_DATE  = 
ORIGINATOR     = 

OBJECT_NAME    = HXMT (HUIYAN)
OBJECT_ID      = 2017-034A
CENTER_NAME    = EARTH
REF_FRAME      = TEME
TIME_SYSTEM    = UTC
MEAN_ELEMENT_THEORY = SGP/SGP4

EPOCH          = 2026-01-01T05:20:47.844672
MEAN_MOTION    = 15.16508139
ECCENTRICITY   = .0032074
INCLINATION    = 43.0156
RA_OF_ASC_NODE = 31.4951
ARG_OF_PERICENTER = 170.5750
MEAN_ANOMALY   = 189.5706

EPHEMERIS_TYPE = 0
CLASSIFICATION_TYPE = U
NORAD_CAT_ID   = 42758
ELEMENT_SET_NO = 999
REV_AT_EPOCH   = 47229
BSTAR          = .48176E-3
MEAN_MOTION_DOT = .9455E-4
MEAN_MOTION_DDOT = 0

CCSDS_OMM_VERS = 2.0
CREATION_DATE  = 
ORIGINATOR     = 

OBJECT_NAME    = CZ-2C R/B
OBJECT_ID      = 2018-054D
CENTER_NAME    = EARTH
REF_FRAME      = TEME
TIME_SYSTEM    = UTC
MEAN_ELEMENT_THEORY = SGP/SGP4

EPOCH          = 2026-01-01T04:16:56.178336
MEAN_MOTION    = 15.78770989
ECCENTRICITY   = .0012943
INCLINATION    = 35.1337
RA_OF_ASC_NODE = 48.6592
ARG_OF_PERICENTER = 336.9740
MEAN_ANOMALY   = 23.0414

EPHEMERIS_TYPE = 0
CLASSIFICATION_TYPE = U
NORAD_CAT_ID   = 43521
ELEMENT_SET_NO = 999
REV_AT_EPOCH   = 41812
BSTAR          = .86087E-3
MEAN_MOTION_DOT = .161024E-2
MEAN_MOTION_DDOT = 0

CCSDS_OMM_VERS = 2.0
CREATION_DATE  = 
ORIGINATOR     = 

OBJECT_NAME    = SAOCOM 1A
OBJECT_ID      = 2018-076A
CENTER_NAME    = EARTH
REF_FRAME      = TEME
TIME_SYSTEM    = UTC
MEAN_ELEMENT_THEORY = SGP/SGP4

EPOCH          = 2025-12-31T10:33:23.944608
MEAN_MOTION    = 14.82154801
ECCENTRICITY   = .00013845
INCLINATION    = 97.8848
RA_OF_ASC_NODE = 189.5891
ARG_OF_PERICENTER = 83.2840
MEAN_ANOMALY   = 276.8530

EPHEMERIS_TYPE = 0
CLASSIFICATION_TYPE = U
NORAD_CAT_ID   = 43641
ELEMENT_SET_NO = 999
REV_AT_EPOCH   = 39125
BSTAR          = -.4415733E-4
MEAN_MOTION_DOT = -.404E-5
MEAN_MOTION_DDOT = 0

CCSDS_OMM_VERS = 2.0
CREATION_DATE  = 
ORIGINATOR     = 

OBJECT_NAME    = H-2A R/B
OBJECT_ID      = 2018-084L
CENTER_NAME    = EARTH
REF_FRAME      = TEME
TIME_SYSTEM    = UTC
MEAN_ELEMENT_THEORY = SGP/SGP4

EPOCH          = 2026-01-01T03:34:15.493152
MEAN_MOTION    = 15.38196297
ECCENTRICITY   = .0026103
INCLINATION    = 98.8765
RA_OF_ASC_NODE = 204.2625
ARG_OF_PERICENTER = 258.1001
MEAN_ANOMALY   = 101.7312

EPHEMERIS_TYPE = 0
CLASSIFICATION_TYPE = U
NORAD_CAT_ID   = 43682
ELEMENT_SET_NO = 999
REV_AT_EPOCH   = 39538
BSTAR          = .78294E-3
MEAN_MOTION_DOT = .29771E-3
MEAN_MOTION_DDOT = 0

CCSDS_OMM_VERS = 2.0
CREATION_DATE  = 
ORIGINATOR     = 

OBJECT_NAME    = SAOCOM 1B
OBJECT_ID      = 2020-059A
CENTER_NAME    = EARTH
REF_FRAME      = TEME
TIME_SYSTEM    = UTC
MEAN_ELEMENT_THEORY = SGP/SGP4

EPOCH          = 2026-01-01T03:30:31.896000
MEAN_MOTION    = 14.82163851
ECCENTRICITY   = .0001441
INCLINATION    = 97.8843
RA_OF_ASC_NODE = 189.3848
ARG_OF_PERICENTER = 85.2398
MEAN_ANOMALY   = 274.8980

EPHEMERIS_TYPE = 0
CLASSIFICATION_TYPE = U
NORAD_CAT_ID   = 46265
ELEMENT_SET_NO = 999
REV_AT_EPOCH   = 28874
BSTAR          = .17518E-3
MEAN_MOTION_DOT = .1343E-4
MEAN_MOTION_DDOT = 0

CCSDS_OMM_VERS = 2.0
CREATION_DATE  = 
ORIGINATOR     = 

OBJECT_NAME    = CSS (TIANHE)
OBJECT_ID      = 2021-035A
CENTER_NAME    = EARTH
REF_FRAME      = TEME
TIME_SYSTEM    = UTC
MEAN_ELEMENT_THEORY = SGP/SGP4

EPOCH          = 2026-01-01T02:49:34.845888
MEAN_MOTION    = 15.59995819
ECCENTRICITY   = .0009918
INCLINATION    = 41.4667
RA_OF_ASC_NODE = 258.9953
ARG_OF_PERICENTER = 194.9234
MEAN_ANOMALY   = 165.1313

EPHEMERIS_TYPE = 0
CLASSIFICATION_TYPE = U
NORAD_CAT_ID   = 48274
ELEMENT_SET_NO = 999
REV_AT_EPOCH   = 26705
BSTAR          = .31558E-3
MEAN_MOTION_DOT = .26048E-3
MEAN_MOTION_DDOT = 0

CCSDS_OMM_VERS = 2.0
CREATION_DATE  = 
ORIGINATOR     = 

OBJECT_NAME    = COSMOS 2550
OBJECT_ID      = 2021-056A
CENTER_NAME    = EARTH
REF_FRAME      = TEME
TIME_SYSTEM    = UTC
MEAN_ELEMENT_THEORY = SGP/SGP4

EPOCH          = 2025-12-31T12:08:23.692128
MEAN_MOTION    = 15.33836624
ECCENTRICITY   = .00083314
INCLINATION    = 67.1441
RA_OF_ASC_NODE = 247.1723
ARG_OF_PERICENTER = 269.3764
MEAN_ANOMALY   = 90.6436

EPHEMERIS_TYPE = 0
CLASSIFICATION_TYPE = U
NORAD_CAT_ID   = 48865
ELEMENT_SET_NO = 999
REV_AT_EPOCH   = 25300
BSTAR          = .698646E-6
MEAN_MOTION_DOT = -.169E-5
MEAN_MOTION_DDOT = 0

CCSDS_OMM_VERS = 2.0
CREATION_DATE  = 
ORIGINATOR     = 

OBJECT_NAME    = CZ-2C R/B
OBJECT_ID      = 2022-058K
CENTER_NAME    = EARTH
REF_FRAME      = TEME
TIME_SYSTEM    = UTC
MEAN_ELEMENT_THEORY = SGP/SGP4

EPOCH          = 2025-12-31T06:10:14.131200
MEAN_MOTION    = 15.49588426
ECCENTRICITY   = .00441275
INCLINATION    = 50.1923
RA_OF_ASC_NODE = 309.0475
ARG_OF_PERICENTER = 274.4376
MEAN_ANOMALY   = 85.1552

EPHEMERIS_TYPE = 0
CLASSIFICATION_TYPE = U
NORAD_CAT_ID   = 52794
ELEMENT_SET_NO = 999
REV_AT_EPOCH   = 19950
BSTAR          = .7400696E-3
MEAN_MOTION_DOT = .43119E-3
MEAN_MOTION_DDOT = 0

